[{"OBJECT_NAME":"SCS-01 D","OBJECT_ID":"2025-100D","EPOCH":"2026-03-09T18:08:45.040704","MEAN_MOTION":15.31902149,"ECCENTRICITY":0.00063457,"INCLINATION":97.373,"RA_OF_ASC_NODE":145.4097,"ARG_OF_PERICENTER":266.2302,"MEAN_ANOMALY":93.8214,"EPHEMERIS_TYPE":0,"CLASSIFICATION_TYPE":"U","NORAD_CAT_ID":63985,"ELEMENT_SET_NO":999,"REV_AT_EPOCH":4562,"BSTAR":0.0010528181,"MEAN_MOTION_DOT":0.00032471,"MEAN_MOTION_DDOT":0},{"OBJECT_NAME":"STARLINK-35101","OBJECT_ID":"2025-212AA","EPOCH":"2026-03-09T22:07:10.390656","MEAN_MOTION":15.30207682,"ECCENTRICITY":0.00010877,"INCLINATION":53.1585,"RA_OF_ASC_NODE":344.2668,"ARG_OF_PERICENTER":94.0579,"MEAN_ANOMALY":266.0546,"EPHEMERIS_TYPE":0,"CLASSIFICATION_TYPE":"U","NORAD_CAT_ID":65700,"ELEMENT_SET_NO":999,"REV_AT_EPOCH":2723,"BSTAR":0.00087534217,"MEAN_MOTION_DOT":0.00025662,"MEAN_MOTION_DDOT":0}]
